[{"OBJECT_NAME":"MOHAMMED VI-B","OBJECT_ID":"2018-095A","EPOCH":"2026-03-09T22:26:08.360736","MEAN_MOTION":14.77128516,"ECCENTRICITY":0.0001216,"INCLINATION":97.9414,"RA_OF_ASC_NODE":142.6736,"ARG_OF_PERICENTER":91.5089,"MEAN_ANOMALY":268.6261,"EPHEMERIS_TYPE":0,"CLASSIFICATION_TYPE":"U","NORAD_CAT_ID":43717,"ELEMENT_SET_NO":999,"REV_AT_EPOCH":39353,"BSTAR":0.00010160922,"MEAN_MOTION_DOT":6.68e-6,"MEAN_MOTION_DDOT":0},{"OBJECT_NAME":"KUIPER-00146","OBJECT_ID":"2025-228W","EPOCH":"2026-03-09T23:12:37.486656","MEAN_MOTION":14.76495298,"ECCENTRICITY":0.00011498,"INCLINATION":51.9043,"RA_OF_ASC_NODE":341.7937,"ARG_OF_PERICENTER":114.3264,"MEAN_ANOMALY":245.7817,"EPHEMERIS_TYPE":0,"CLASSIFICATION_TYPE":"U","NORAD_CAT_ID":65967,"ELEMENT_SET_NO":999,"REV_AT_EPOCH":2351,"BSTAR":0.0005122379,"MEAN_MOTION_DOT":3.387e-5,"MEAN_MOTION_DDOT":0}]
